{
  "norad_id": 66296,
  "name": "BANDWAGON-4 OBJECT D",
  "history": [
    {
      "epoch": "2026-03-28T16:52:52.285152",
      "apogee_km": 508.04470952966676,
      "perigee_km": 500.11199282728467,
      "latitude_deg": 45.34965638186036,
      "longitude_deg": 157.12476128013805,
      "semi_major_axis_km": 6882.215351178475,
      "eccentricity": 0.00057632,
      "inclination_deg": 45.4052,
      "raan_deg": 192.2981,
      "arg_perigee_deg": 311.0824,
      "mean_anomaly_deg": 48.9565,
      "mean_motion_rev_day": 15.20583855
    }
  ]
}