{"fetched_at":"2026-03-29T16:36:15Z","count":15609,"tles":[{"name":"BANDWAGON-4 OBJECT D","line1":"1 66296U 25248D   26087.70338293  .00008899  00000+0  41123-3 0  9995","line2":"2 66296  45.4052 192.2981 0005763 311.0824  48.9565 15.20583855 22275","category":"Other"}]}